{"type": "FeatureCollection", "features": [ {"type": "Feature", "properties": {"norad_id": 66605, "name": "STARLINK-36052", "group": "last-30-days", "lat": -28.994686671649006, "lon": -37.20565916682436, "alt_km": 445.91664052194847, "timestamp": "2025-12-27T15:27:09.828591+00:00", "meta": {"OBJECT_NAME": "STARLINK-36052", "OBJECT_ID": "2025-270T", "EPOCH": "2025-12-27T00:28:37.938720", "MEAN_MOTION": 15.40732543, "ECCENTRICITY": 0.00010337, "INCLINATION": 42.9984, "RA_OF_ASC_NODE": 109.8967, "ARG_OF_PERICENTER": 271.8255, "MEAN_ANOMALY": 88.2483, "EPHEMERIS_TYPE": 0, "CLASSIFICATION_TYPE": "U", "NORAD_CAT_ID": 66605, "ELEMENT_SET_NO": 999, "REV_AT_EPOCH": 655, "BSTAR": 0.0014674597, "MEAN_MOTION_DOT": 0.00061558, "MEAN_MOTION_DDOT": 0}, "tle": {"line1": "1 66605U 25270T   25361.01988355  .00061558  00000+0  14675-2 0  9994", "line2": "2 66605  42.9984 109.8967 0001033 271.8255  88.2483 15.40732543  6551"}}, "geometry": {"type": "Point", "coordinates": [-37.20565916682436, -28.994686671649006]}}, {"type": "Feature", "properties": {"norad_id": 66606, "name": "STARLINK-36063", "group": "last-30-days", "lat": -30.339614072077115, "lon": 67.17734457413174, "alt_km": 445.6663791477131, "timestamp": "2025-12-27T15:27:09.828604+00:00", "meta": {"OBJECT_NAME": "STARLINK-36063", "OBJECT_ID": "2025-270U", "EPOCH": "2025-12-27T07:52:48.880992", "MEAN_MOTION": 15.40724102, "ECCENTRICITY": 0.00013584, "INCLINATION": 42.9989, "RA_OF_ASC_NODE": 107.9067, "ARG_OF_PERICENTER": 296.146, "MEAN_ANOMALY": 63.9257, "EPHEMERIS_TYPE": 0, "CLASSIFICATION_TYPE": "U", "NORAD_CAT_ID": 66606, "ELEMENT_SET_NO": 999, "REV_AT_EPOCH": 660, "BSTAR": 0.0017540183, "MEAN_MOTION_DOT": 0.00073736, "MEAN_MOTION_DDOT": 0}, "tle": {"line1": "1 66606U 25270U   25361.32834353  .00073736  00000+0  17540-2 0  9992", "line2": "2 66606  42.9989 107.9067 0001358 296.1460  63.9257 15.40724102  6602"}}, "geometry": {"type": "Point", "coordinates": [67.17734457413174, -30.339614072077115]}}, {"type": "Feature", "properties": {"norad_id": 66607, "name": "STARLINK-35993", "group": "last-30-days", "lat": -35.178258795801234, "lon": -24.573421519140584, "alt_km": 447.1376561731886, "timestamp": "2025-12-27T15:27:09.828615+00:00", "meta": {"OBJECT_NAME": "STARLINK-35993", "OBJECT_ID": "2025-270V", "EPOCH": "2025-12-27T00:25:24.794112", "MEAN_MOTION": 15.40714883, "ECCENTRICITY": 4.801e-05, "INCLINATION": 42.9959, "RA_OF_ASC_NODE": 109.8792, "ARG_OF_PERICENTER": 40.5095, "MEAN_ANOMALY": 319.5797, "EPHEMERIS_TYPE": 0, "CLASSIFICATION_TYPE": "U", "NORAD_CAT_ID": 66607, "ELEMENT_SET_NO": 999, "REV_AT_EPOCH": 645, "BSTAR": 0.0011935754, "MEAN_MOTION_DOT": 0.00049906, "MEAN_MOTION_DDOT": 0}, "tle": {"line1": "1 66607U 25270V   25361.01764808  .00049906  00000+0  11936-2 0  9991", "line2": "2 66607  42.9959 109.8792 0000480  40.5095 319.5797 15.40714883  6453"}}, "geometry": {"type": "Point", "coordinates": [-24.573421519140584, -35.178258795801234]}}, {"type": "Feature", "properties": {"norad_id": 66608, "name": "STARLINK-36036", "group": "last-30-days", "lat": -23.22519028995023, "lon": 78.63594118607045, "alt_km": 443.4593961295777, "timestamp": "2025-12-27T15:27:09.828625+00:00", "meta": {"OBJECT_NAME": "STARLINK-36036", "OBJECT_ID": "2025-270W", "EPOCH": "2025-12-27T07:49:34.997664", "MEAN_MOTION": 15.40755893, "ECCENTRICITY": 0.00043203, "INCLINATION": 42.9997, "RA_OF_ASC_NODE": 107.8876, "ARG_OF_PERICENTER": 291.6857, "MEAN_ANOMALY": 68.3539, "EPHEMERIS_TYPE": 0, "CLASSIFICATION_TYPE": "U", "NORAD_CAT_ID": 66608, "ELEMENT_SET_NO": 999, "REV_AT_EPOCH": 644, "BSTAR": 0.0014632058, "MEAN_MOTION_DOT": 0.0006144, "MEAN_MOTION_DDOT": 0}, "tle": {"line1": "1 66608U 25270W   25361.32609951  .00061440  00000+0  14632-2 0  9996", "line2": "2 66608  42.9997 107.8876 0004320 291.6857  68.3539 15.40755893  6447"}}, "geometry": {"type": "Point", "coordinates": [78.63594118607045, -23.22519028995023]}}, {"type": "Feature", "properties": {"norad_id": 66609, "name": "STARLINK-36034", "group": "last-30-days", "lat": -7.110130180609761, "lon": 98.29919676778928, "alt_km": 445.18431976001193, "timestamp": "2025-12-27T15:27:09.828636+00:00", "meta": {"OBJECT_NAME": "STARLINK-36034", "OBJECT_ID": "2025-270X", "EPOCH": "2025-12-27T07:43:08.060448", "MEAN_MOTION": 15.40754319, "ECCENTRICITY": 0.00012175, "INCLINATION": 42.995, "RA_OF_ASC_NODE": 107.8509, "ARG_OF_PERICENTER": 145.2619, "MEAN_ANOMALY": 214.8318, "EPHEMERIS_TYPE": 0, "CLASSIFICATION_TYPE": "U", "NORAD_CAT_ID": 66609, "ELEMENT_SET_NO": 999, "REV_AT_EPOCH": 644, "BSTAR": 0.0014016036, "MEAN_MOTION_DOT": 0.00058804, "MEAN_MOTION_DDOT": 0}, "tle": {"line1": "1 66609U 25270X   25361.32162107  .00058804  00000+0  14016-2 0  9990", "line2": "2 66609  42.9950 107.8509 0001217 145.2619 214.8318 15.40754319  6447"}}, "geometry": {"type": "Point", "coordinates": [98.29919676778928, -7.110130180609761]}}, {"type": "Feature", "properties": {"norad_id": 66610, "name": "STARLINK-35680", "group": "last-30-days", "lat": -42.551069724913276, "lon": 6.317511833362267, "alt_km": 445.97509049660766, "timestamp": "2025-12-27T15:27:09.828646+00:00", "meta": {"OBJECT_NAME": "STARLINK-35680", "OBJECT_ID": "2025-270Y", "EPOCH": "2025-12-26T14:58:49.990080", "MEAN_MOTION": 15.40709304, "ECCENTRICITY": 0.000156, "INCLINATION": 42.9985, "RA_OF_ASC_NODE": 112.0805, "ARG_OF_PERICENTER": 278.6419, "MEAN_ANOMALY": 81.4261, "EPHEMERIS_TYPE": 0, "CLASSIFICATION_TYPE": "U", "NORAD_CAT_ID": 66610, "ELEMENT_SET_NO": 999, "REV_AT_EPOCH": 660, "BSTAR": 0.0016797, "MEAN_MOTION_DOT": 0.00070534, "MEAN_MOTION_DDOT": 0}, "tle": {"line1": "1 66610U 25270Y   25360.62418970  .00070534  00000+0  16797-2 0  9998", "line2": "2 66610  42.9985 112.0805 0001560 278.6419  81.4261 15.40709304  6601"}}, "geometry": {"type": "Point", "coordinates": [6.317511833362267, -42.551069724913276]}}, {"type": "Feature", "properties": {"norad_id": 66611, "name": "STARLINK-35583", "group": "last-30-days", "lat": -40.551496712001565, "lon": 39.475400648822934, "alt_km": 445.8393002428211, "timestamp": "2025-12-27T15:27:09.828656+00:00", "meta": {"OBJECT_NAME": "STARLINK-35583", "OBJECT_ID": "2025-270Z", "EPOCH": "2025-12-26T16:25:44.103072", "MEAN_MOTION": 15.40707676, "ECCENTRICITY": 0.00016338, "INCLINATION": 42.9993, "RA_OF_ASC_NODE": 111.6744, "ARG_OF_PERICENTER": 285.7881, "MEAN_ANOMALY": 74.2796, "EPHEMERIS_TYPE": 0, "CLASSIFICATION_TYPE": "U", "NORAD_CAT_ID": 66611, "ELEMENT_SET_NO": 999, "REV_AT_EPOCH": 661, "BSTAR": 0.0014847827, "MEAN_MOTION_DOT": 0.00062243, "MEAN_MOTION_DDOT": 0}, "tle": {"line1": "1 66611U 25270Z   25360.68453823  .00062243  00000+0  14848-2 0  9994", "line2": "2 66611  42.9993 111.6744 0001633 285.7881  74.2796 15.40707676  6615"}}, "geometry": {"type": "Point", "coordinates": [39.475400648822934, -40.551496712001565]}}, {"type": "Feature", "properties": {"norad_id": 66612, "name": "STARLINK-36039", "group": "last-30-days", "lat": 25.516484817143674, "lon": 137.55834449431987, "alt_km": 439.9801954830564, "timestamp": "2025-12-27T15:27:09.828666+00:00", "meta": {"OBJECT_NAME": "STARLINK-36039", "OBJECT_ID": "2025-270AA", "EPOCH": "2025-12-26T08:10:07.769280", "MEAN_MOTION": 15.4077388, "ECCENTRICITY": 0.0001563, "INCLINATION": 42.9999, "RA_OF_ASC_NODE": 114.2604, "ARG_OF_PERICENTER": 261.7567, "MEAN_ANOMALY": 98.3112, "EPHEMERIS_TYPE": 0, "CLASSIFICATION_TYPE": "U", "NORAD_CAT_ID": 66612, "ELEMENT_SET_NO": 999, "REV_AT_EPOCH": 644, "BSTAR": 0.0014141, "MEAN_MOTION_DOT": 0.00059376, "MEAN_MOTION_DDOT": 0}, "tle": {"line1": "1 66612U 25270AA  25360.34036770  .00059376  00000+0  14141-2 0  9995", "line2": "2 66612  42.9999 114.2604 0001563 261.7567  98.3112 15.40773880  6443"}}, "geometry": {"type": "Point", "coordinates": [137.55834449431987, 25.516484817143674]}}, {"type": "Feature", "properties": {"norad_id": 66613, "name": "STARLINK-36037", "group": "last-30-days", "lat": 37.69047971260781, "lon": 162.6829558413086, "alt_km": 439.50811372086446, "timestamp": "2025-12-27T15:27:09.828676+00:00", "meta": {"OBJECT_NAME": "STARLINK-36037", "OBJECT_ID": "2025-270AB", "EPOCH": "2025-12-26T15:50:25.954368", "MEAN_MOTION": 15.4073953, "ECCENTRICITY": 0.00043437, "INCLINATION": 43.0056, "RA_OF_ASC_NODE": 112.3618, "ARG_OF_PERICENTER": 287.9955, "MEAN_ANOMALY": 72.0428, "EPHEMERIS_TYPE": 0, "CLASSIFICATION_TYPE": "U", "NORAD_CAT_ID": 66613, "ELEMENT_SET_NO": 999, "REV_AT_EPOCH": 649, "BSTAR": 0.0011730413, "MEAN_MOTION_DOT": 0.00049089, "MEAN_MOTION_DDOT": 0}, "tle": {"line1": "1 66613U 25270AB  25360.66002262  .00049089  00000+0  11730-2 0  9991", "line2": "2 66613  43.0056 112.3618 0004343 287.9955  72.0428 15.40739530  6492"}}, "geometry": {"type": "Point", "coordinates": [162.6829558413086, 37.69047971260781]}}, {"type": "Feature", "properties": {"norad_id": 66614, "name": "STARLINK-36040", "group": "last-30-days", "lat": 3.047919670145385, "lon": -76.85891849215442, "alt_km": 443.4518580125132, "timestamp": "2025-12-27T15:27:09.828687+00:00", "meta": {"OBJECT_NAME": "STARLINK-36040", "OBJECT_ID": "2025-270AC", "EPOCH": "2025-12-27T00:41:32.802432", "MEAN_MOTION": 15.40691282, "ECCENTRICITY": 6.789e-05, "INCLINATION": 43.0004, "RA_OF_ASC_NODE": 109.9619, "ARG_OF_PERICENTER": 20.0612, "MEAN_ANOMALY": 340.0272, "EPHEMERIS_TYPE": 0, "CLASSIFICATION_TYPE": "U", "NORAD_CAT_ID": 66614, "ELEMENT_SET_NO": 999, "REV_AT_EPOCH": 639, "BSTAR": 0.0024528514, "MEAN_MOTION_DOT": 0.00103528, "MEAN_MOTION_DDOT": 0}, "tle": {"line1": "1 66614U 25270AC  25361.02885188  .00103528  00000+0  24529-2 0  9998", "line2": "2 66614  43.0004 109.9619 0000678  20.0612 340.0272 15.40691282  6397"}}, "geometry": {"type": "Point", "coordinates": [-76.85891849215442, 3.047919670145385]}}]}